CTC1_L_00561063-01
1 37126U 25440AG  26070.40840278  .00000000  00000+0  00000-0 0  9991
2 37126  98.0000 186.0000 0000000   0.0000  12.0000 14.73473854    13
CTC1_L_00561063-02
1 37127U 25642WB  26070.40840278  .00000000  00000+0  00000-0 0  9996
2 37127  98.0000 186.0000 0000000   0.0000 192.0000 14.73473854    13
CTC1_L_00561064-01
1 37128U 25627AJ  26070.40840278  .00000000  00000+0  00000-0 0  9990
2 37128  98.0000 189.0000 0000000   0.0000  18.0000 14.73473854    14
CTC1_L_00561064-02
1 37129U 23811ZL  26070.40840278  .00000000  00000+0  00000-0 0  9994
2 37129  98.0000 189.0000 0000000   0.0000 198.0000 14.73473854    14
CTC1_L_00561065-01
1 37130U 22072VX  26070.40840278  .00000000  00000+0  00000-0 0  9994
2 37130  98.0000 192.0000 0000000   0.0000  24.0000 14.73473854    18
CTC1_L_00561065-02
1 37131U 26584JU  26070.40840278  .00000000  00000+0  00000-0 0  9997
2 37131  98.0000 192.0000 0000000   0.0000 204.0000 14.73473854    19
CTC1_L_00561066-01
1 37132U 22788MO  26070.40840278  .00000000  00000+0  00000-0 0  9990
2 37132  98.0000 195.0000 0000000   0.0000  30.0000 14.73473854    10
CTC1_L_00561066-02
1 37133U 22782MH  26070.40840278  .00000000  00000+0  00000-0 0  9995
2 37133  98.0000 195.0000 0000000   0.0000 210.0000 14.73473854    11
CTC1_L_00561067-01
1 37134U 24321ZF  26070.40840278  .00000000  00000+0  00000-0 0  9997
2 37134  98.0000 198.0000 0000000   0.0000  36.0000 14.73473854    11
CTC1_L_00561067-02
1 37135U 25955DQ  26070.40840278  .00000000  00000+0  00000-0 0  9992
2 37135  98.0000 198.0000 0000000   0.0000 216.0000 14.73473854    12
CTC1_L_00561068-01
1 37136U 25605VY  26070.40840278  .00000000  00000+0  00000-0 0  9995
2 37136  98.0000 201.0000 0000000   0.0000  42.0000 14.73473854    15
CTC1_L_00561068-02
1 37137U 26064HS  26070.40840278  .00000000  00000+0  00000-0 0  9996
2 37137  98.0000 201.0000 0000000   0.0000 222.0000 14.73473854    16
CTC1_L_00561069-01
1 37138U 22891BV  26070.40840278  .00000000  00000+0  00000-0 0  9991
2 37138  98.0000 204.0000 0000000   0.0000  48.0000 14.73473854    16
CTC1_L_00561069-02
1 37139U 25300PX  26070.40840278  .00000000  00000+0  00000-0 0  9990
2 37139  98.0000 204.0000 0000000   0.0000 228.0000 14.73473854    17
CTC1_L_00561070-01
1 37140U 26534LF  26070.40840278  .00000000  00000+0  00000-0 0  9992
2 37140  98.0000 207.0000 0000000   0.0000  54.0000 14.73473854    19
CTC1_L_00561070-02
1 37141U 24494FE  26070.40840278  .00000000  00000+0  00000-0 0  9996
2 37141  98.0000 207.0000 0000000   0.0000 234.0000 14.73473854    10
CTC1_L_00561071-01
1 37142U 26469XX  26070.40840278  .00000000  00000+0  00000-0 0  9991
2 37142  98.0000 210.0000 0000000   0.0000  60.0000 14.73473854    12
CTC1_L_00561071-02
1 37143U 23615AF  26070.40840278  .00000000  00000+0  00000-0 0  9992
2 37143  98.0000 210.0000 0000000   0.0000 240.0000 14.73473854    13
CTC1_L_00561072-01
1 37144U 23140UZ  26070.40840278  .00000000  00000+0  00000-0 0  9996
2 37144  98.0000 213.0000 0000000   0.0000  66.0000 14.73473854    13
CTC1_L_00561072-02
1 37145U 26100UZ  26070.40840278  .00000000  00000+0  00000-0 0  9996
2 37145  98.0000 213.0000 0000000   0.0000 246.0000 14.73473854    14
CTC1_L_00561073-01
1 37146U 23169O   26070.40840278  .00000000  00000+0  00000-0 0  9999
2 37146  98.0000 216.0000 0000000   0.0000  72.0000 14.73473854    15
CTC1_L_00561073-02
1 37147U 25339NC  26070.40840278  .00000000  00000+0  00000-0 0  9991
2 37147  98.0000 216.0000 0000000   0.0000 252.0000 14.73473854    16
CTC1_L_00561074-01
1 37148U 25363AQ  26070.40840278  .00000000  00000+0  00000-0 0  9999
2 37148  98.0000 219.0000 0000000   0.0000  78.0000 14.73473854    16
CTC1_L_00561074-02
1 37149U 24587FH  26070.40840278  .00000000  00000+0  00000-0 0  9997
2 37149  98.0000 219.0000 0000000   0.0000 258.0000 14.73473854    17
CTC1_L_00561075-01
1 37150U 23960SF  26070.40840278  .00000000  00000+0  00000-0 0  9993
2 37150  98.0000 222.0000 0000000   0.0000  84.0000 14.73473854    10
CTC1_L_00561075-02
1 37151U 23535TM  26070.40840278  .00000000  00000+0  00000-0 0  9992
2 37151  98.0000 222.0000 0000000   0.0000 264.0000 14.73473854    11
CTC1_L_00561076-01
1 37152U 24621HH  26070.40840278  .00000000  00000+0  00000-0 0  9990
2 37152  98.0000 225.0000 0000000   0.0000  90.0000 14.73473854    12
CTC1_L_00561076-02
1 37153U 26908TK  26070.40840278  .00000000  00000+0  00000-0 0  9991
2 37153  98.0000 225.0000 0000000   0.0000 270.0000 14.73473854    13
CTC1_L_00561077-01
1 37154U 24331NY  26070.40840278  .00000000  00000+0  00000-0 0  9990
2 37154  98.0000 228.0000 0000000   0.0000  96.0000 14.73473854    13
CTC1_L_00561077-02
1 37155U 24302PC  26070.40840278  .00000000  00000+0  00000-0 0  9999
2 37155  98.0000 228.0000 0000000   0.0000 276.0000 14.73473854    14
CTC1_L_00561078-01
1 37156U 22617SP  26070.40840278  .00000000  00000+0  00000-0 0  9997
2 37156  98.0000 231.0000 0000000   0.0000 102.0000 14.73473854    17
CTC1_L_00561078-02
1 37157U 23167QX  26070.40840278  .00000000  00000+0  00000-0 0  9999
2 37157  98.0000 231.0000 0000000   0.0000 282.0000 14.73473854    17
CTC1_L_00561079-01
1 37158U 25275OZ  26070.40840278  .00000000  00000+0  00000-0 0  9992
2 37158  98.0000 234.0000 0000000   0.0000 108.0000 14.73473854    18
CTC1_L_00561079-02
1 37159U 24837DA  26070.40840278  .00000000  00000+0  00000-0 0  9996
2 37159  98.0000 234.0000 0000000   0.0000 288.0000 14.73473854    18
CTC1_L_00561080-01
1 37160U 24526FZ  26070.40840278  .00000000  00000+0  00000-0 0  9993
2 37160  98.0000 237.0000 0000000   0.0000 114.0000 14.73473854    11
CTC1_L_00561080-02
1 37161U 26854YN  26070.40840278  .00000000  00000+0  00000-0 0  9990
2 37161  98.0000 237.0000 0000000   0.0000 294.0000 14.73473854    11
CTC1_L_00561081-01
1 37162U 25650HZ  26070.40840278  .00000000  00000+0  00000-0 0  9994
2 37162  98.0000 240.0000 0000000   0.0000 120.0000 14.73473854    14
CTC1_L_00561081-02
1 37163U 25029JB  26070.40840278  .00000000  00000+0  00000-0 0  9995
2 37163  98.0000 240.0000 0000000   0.0000 300.0000 14.73473854    15
CTC1_L_00561082-01
1 37164U 26310PM  26070.40840278  .00000000  00000+0  00000-0 0  9990
2 37164  98.0000 243.0000 0000000   0.0000 126.0000 14.73473854    15
CTC1_L_00561082-02
1 37165U 26263IF  26070.40840278  .00000000  00000+0  00000-0 0  9998
2 37165  98.0000 243.0000 0000000   0.0000 306.0000 14.73473854    16
CTC1_L_00561083-01
1 37166U 23511OS  26070.40840278  .00000000  00000+0  00000-0 0  9992
2 37166  98.0000 246.0000 0000000   0.0000 132.0000 14.73473854    17
CTC1_L_00561083-02
1 37167U 25056G   26070.40840278  .00000000  00000+0  00000-0 0  9999
2 37167  98.0000 246.0000 0000000   0.0000 312.0000 14.73473854    18
CTC1_L_00561084-01
1 37168U 23974QK  26070.40840278  .00000000  00000+0  00000-0 0  9997
2 37168  98.0000 249.0000 0000000   0.0000 138.0000 14.73473854    18
CTC1_L_00561084-02
1 37169U 24553NS  26070.40840278  .00000000  00000+0  00000-0 0  9992
2 37169  98.0000 249.0000 0000000   0.0000 318.0000 14.73473854    19
CTC1_L_00561085-01
1 37170U 22388JN  26070.40840278  .00000000  00000+0  00000-0 0  9998
2 37170  98.0000 252.0000 0000000   0.0000 144.0000 14.73473854    12
CTC1_L_00561085-02
1 37171U 22679C   26070.40840278  .00000000  00000+0  00000-0 0  9992
2 37171  98.0000 252.0000 0000000   0.0000 324.0000 14.73473854    13
CTC1_L_00561086-01
1 37172U 26198IK  26070.40840278  .00000000  00000+0  00000-0 0  9993
2 37172  98.0000 255.0000 0000000   0.0000 150.0000 14.73473854    14
CTC1_L_00561086-02
1 37173U 24400FF  26070.40840278  .00000000  00000+0  00000-0 0  9998
2 37173  98.0000 255.0000 0000000   0.0000 330.0000 14.73473854    15
CTC1_L_00561087-01
1 37174U 22641JQ  26070.40840278  .00000000  00000+0  00000-0 0  9994
2 37174  98.0000 258.0000 0000000   0.0000 156.0000 14.73473854    15
CTC1_L_00561087-02
1 37175U 24265TD  26070.40840278  .00000000  00000+0  00000-0 0  9999
2 37175  98.0000 258.0000 0000000   0.0000 336.0000 14.73473854    16
CTC1_L_00561088-01
1 37176U 22998JE  26070.40840278  .00000000  00000+0  00000-0 0  9991
2 37176  98.0000 261.0000 0000000   0.0000 162.0000 14.73473854    18
CTC1_L_00561088-02
1 37177U 25749RV  26070.40840278  .00000000  00000+0  00000-0 0  9999
2 37177  98.0000 261.0000 0000000   0.0000 342.0000 14.73473854    19
CTC1_L_00561089-01
1 37178U 24299HB  26070.40840278  .00000000  00000+0  00000-0 0  9999
2 37178  98.0000 264.0000 0000000   0.0000 168.0000 14.73473854    19
CTC1_L_00561089-02
1 37179U 22242G   26070.40840278  .00000000  00000+0  00000-0 0  9996
2 37179  98.0000 264.0000 0000000   0.0000 348.0000 14.73473854    10
CTC1_L_00561090-01
1 37180U 23469TZ  26070.40840278  .00000000  00000+0  00000-0 0  9990
2 37180  98.0000 267.0000 0000000   0.0000 174.0000 14.73473854    12
CTC1_L_00561090-02
1 37181U 23069GU  26070.40840278  .00000000  00000+0  00000-0 0  9997
2 37181  98.0000 267.0000 0000000   0.0000 354.0000 14.73473854    13
CTC1_L_00561091-01
1 37182U 22578LB  26070.40840278  .00000000  00000+0  00000-0 0  9992
2 37182  98.0000 270.0000 0000000   0.0000 180.0000 14.73473854    15
CTC1_L_00561091-02
1 37183U 23409BT  26070.40840278  .00000000  00000+0  00000-0 0  9997
2 37183  98.0000 270.0000 0000000   0.0000   0.0000 14.73473854    17
CTC1_L_00561092-01
1 37184U 25250PK  26070.40840278  .00000000  00000+0  00000-0 0  9994
2 37184  98.0000 273.0000 0000000   0.0000 186.0000 14.73473854    16
CTC1_L_00561092-02
1 37185U 22226ZN  26070.40840278  .00000000  00000+0  00000-0 0  9995
2 37185  98.0000 273.0000 0000000   0.0000   6.0000 14.73473854    18
CTC1_L_00561093-01
1 37186U 26673PC  26070.40840278  .00000000  00000+0  00000-0 0  9996
2 37186  98.0000 276.0000 0000000   0.0000 192.0000 14.73473854    18
CTC1_L_00561093-02
1 37187U 23470IU  26070.40840278  .00000000  00000+0  00000-0 0  9999
2 37187  98.0000 276.0000 0000000   0.0000  12.0000 14.73473854    10
